[
  {
    "OBJECT_NAME": "STARLINK-11335 [DTC]",
    "OBJECT_ID": "2024-195A",
    "EPOCH": "2025-05-10T14:10:27.140160",
    "MEAN_MOTION": 15.69712514,
    "ECCENTRICITY": 0.0001295,
    "INCLINATION": 53.16,
    "RA_OF_ASC_NODE": 80.7855,
    "ARG_OF_PERICENTER": 91.7631,
    "MEAN_ANOMALY": 268.3535,
    "EPHEMERIS_TYPE": 0,
    "CLASSIFICATION_TYPE": "U",
    "NORAD_CAT_ID": 61687,
    "ELEMENT_SET_NO": 999,
    "REV_AT_EPOCH": 3142,
    "BSTAR": 9.7264e-06,
    "MEAN_MOTION_DOT": 5.9e-06,
    "MEAN_MOTION_DDOT": 0
  },
  {
    "OBJECT_NAME": "STARLINK-11344 [DTC]",
    "OBJECT_ID": "2024-195B",
    "EPOCH": "2025-05-10T14:03:22.707936",
    "MEAN_MOTION": 15.69725487,
    "ECCENTRICITY": 0.0001428,
    "INCLINATION": 53.1609,
    "RA_OF_ASC_NODE": 80.7527,
    "ARG_OF_PERICENTER": 98.9218,
    "MEAN_ANOMALY": 261.1962,
    "EPHEMERIS_TYPE": 0,
    "CLASSIFICATION_TYPE": "U",
    "NORAD_CAT_ID": 61688,
    "ELEMENT_SET_NO": 999,
    "REV_AT_EPOCH": 3141,
    "BSTAR": 2.3549e-05,
    "MEAN_MOTION_DOT": 2.266e-05,
    "MEAN_MOTION_DDOT": 0
  },
  {
    "OBJECT_NAME": "STARLINK-11312 [DTC]",
    "OBJECT_ID": "2024-195C",
    "EPOCH": "2025-05-10T13:56:20.457312",
    "MEAN_MOTION": 15.69703709,
    "ECCENTRICITY": 0.0001438,
    "INCLINATION": 53.1606,
    "RA_OF_ASC_NODE": 80.72,
    "ARG_OF_PERICENTER": 94.6713,
    "MEAN_ANOMALY": 265.4469,
    "EPHEMERIS_TYPE": 0,
    "CLASSIFICATION_TYPE": "U",
    "NORAD_CAT_ID": 61689,
    "ELEMENT_SET_NO": 999,
    "REV_AT_EPOCH": 3141,
    "BSTAR": 2.099e-06,
    "MEAN_MOTION_DOT": -3.35e-06,
    "MEAN_MOTION_DDOT": 0
  },
  {
    "OBJECT_NAME": "STARLINK-11340 [DTC]",
    "OBJECT_ID": "2024-195D",
    "EPOCH": "2025-05-10T13:49:16.217760",
    "MEAN_MOTION": 15.69706964,
    "ECCENTRICITY": 0.000155,
    "INCLINATION": 53.1598,
    "RA_OF_ASC_NODE": 80.6849,
    "ARG_OF_PERICENTER": 105.1082,
    "MEAN_ANOMALY": 255.0108,
    "EPHEMERIS_TYPE": 0,
    "CLASSIFICATION_TYPE": "U",
    "NORAD_CAT_ID": 61690,
    "ELEMENT_SET_NO": 999,
    "REV_AT_EPOCH": 3142,
    "BSTAR": -8.2125e-07,
    "MEAN_MOTION_DOT": -6.89e-06,
    "MEAN_MOTION_DDOT": 0
  },
  {
    "OBJECT_NAME": "STARLINK-11339 [DTC]",
    "OBJECT_ID": "2024-195E",
    "EPOCH": "2025-05-10T13:35:07.625472",
    "MEAN_MOTION": 15.69722512,
    "ECCENTRICITY": 0.00011,
    "INCLINATION": 53.1607,
    "RA_OF_ASC_NODE": 80.6218,
    "ARG_OF_PERICENTER": 94.8756,
    "MEAN_ANOMALY": 265.2387,
    "EPHEMERIS_TYPE": 0,
    "CLASSIFICATION_TYPE": "U",
    "NORAD_CAT_ID": 61691,
    "ELEMENT_SET_NO": 999,
    "REV_AT_EPOCH": 3142,
    "BSTAR": 3.8472e-07,
    "MEAN_MOTION_DOT": -5.42e-06,
    "MEAN_MOTION_DDOT": 0
  },
  {
    "OBJECT_NAME": "STARLINK-11315 [DTC]",
    "OBJECT_ID": "2024-195F",
    "EPOCH": "2025-05-10T13:42:12.661632",
    "MEAN_MOTION": 15.69703625,
    "ECCENTRICITY": 0.0001313,
    "INCLINATION": 53.1598,
    "RA_OF_ASC_NODE": 80.6535,
    "ARG_OF_PERICENTER": 85.5211,
    "MEAN_ANOMALY": 274.5956,
    "EPHEMERIS_TYPE": 0,
    "CLASSIFICATION_TYPE": "U",
    "NORAD_CAT_ID": 61692,
    "ELEMENT_SET_NO": 999,
    "REV_AT_EPOCH": 3142,
    "BSTAR": -1.704e-06,
    "MEAN_MOTION_DOT": -7.95e-06,
    "MEAN_MOTION_DDOT": 0
  },
  {
    "OBJECT_NAME": "STARLINK-11366 [DTC]",
    "OBJECT_ID": "2024-195G",
    "EPOCH": "2025-05-10T13:28:04.839168",
    "MEAN_MOTION": 15.69705571,
    "ECCENTRICITY": 0.0001317,
    "INCLINATION": 53.1598,
    "RA_OF_ASC_NODE": 80.5906,
    "ARG_OF_PERICENTER": 87.8969,
    "MEAN_ANOMALY": 272.22,
    "EPHEMERIS_TYPE": 0,
    "CLASSIFICATION_TYPE": "U",
    "NORAD_CAT_ID": 61693,
    "ELEMENT_SET_NO": 999,
    "REV_AT_EPOCH": 3142,
    "BSTAR": 2.3505e-06,
    "MEAN_MOTION_DOT": -3.04e-06,
    "MEAN_MOTION_DDOT": 0
  },
  {
    "OBJECT_NAME": "STARLINK-11348 [DTC]",
    "OBJECT_ID": "2024-195H",
    "EPOCH": "2025-05-10T13:21:00.573696",
    "MEAN_MOTION": 15.6971202,
    "ECCENTRICITY": 0.0001515,
    "INCLINATION": 53.1604,
    "RA_OF_ASC_NODE": 80.5521,
    "ARG_OF_PERICENTER": 89.0181,
    "MEAN_ANOMALY": 271.1011,
    "EPHEMERIS_TYPE": 0,
    "CLASSIFICATION_TYPE": "U",
    "NORAD_CAT_ID": 61694,
    "ELEMENT_SET_NO": 999,
    "REV_AT_EPOCH": 3142,
    "BSTAR": -4.1052e-06,
    "MEAN_MOTION_DOT": -1.087e-05,
    "MEAN_MOTION_DDOT": 0
  },
  {
    "OBJECT_NAME": "STARLINK-11327 [DTC]",
    "OBJECT_ID": "2024-195J",
    "EPOCH": "2025-05-10T07:07:13.089792",
    "MEAN_MOTION": 15.69723206,
    "ECCENTRICITY": 0.0001876,
    "INCLINATION": 53.1583,
    "RA_OF_ASC_NODE": 81.7829,
    "ARG_OF_PERICENTER": 62.6161,
    "MEAN_ANOMALY": 297.5048,
    "EPHEMERIS_TYPE": 0,
    "CLASSIFICATION_TYPE": "U",
    "NORAD_CAT_ID": 61695,
    "ELEMENT_SET_NO": 999,
    "REV_AT_EPOCH": 3138,
    "BSTAR": 3.3084e-05,
    "MEAN_MOTION_DOT": 3.422e-05,
    "MEAN_MOTION_DDOT": 0
  },
  {
    "OBJECT_NAME": "STARLINK-11341 [DTC]",
    "OBJECT_ID": "2024-195K",
    "EPOCH": "2025-05-10T20:45:18.607680",
    "MEAN_MOTION": 15.69705718,
    "ECCENTRICITY": 0.0001117,
    "INCLINATION": 53.1581,
    "RA_OF_ASC_NODE": 78.9215,
    "ARG_OF_PERICENTER": 78.1509,
    "MEAN_ANOMALY": 281.9634,
    "EPHEMERIS_TYPE": 0,
    "CLASSIFICATION_TYPE": "U",
    "NORAD_CAT_ID": 61696,
    "ELEMENT_SET_NO": 999,
    "REV_AT_EPOCH": 3147,
    "BSTAR": -4.5189e-06,
    "MEAN_MOTION_DOT": -1.136e-05,
    "MEAN_MOTION_DDOT": 0
  },
  {
    "OBJECT_NAME": "STARLINK-11346 [DTC]",
    "OBJECT_ID": "2024-195L",
    "EPOCH": "2025-05-10T20:38:14.774208",
    "MEAN_MOTION": 15.69696988,
    "ECCENTRICITY": 7.76e-05,
    "INCLINATION": 53.1586,
    "RA_OF_ASC_NODE": 78.888,
    "ARG_OF_PERICENTER": 100.8818,
    "MEAN_ANOMALY": 259.2287,
    "EPHEMERIS_TYPE": 0,
    "CLASSIFICATION_TYPE": "U",
    "NORAD_CAT_ID": 61697,
    "ELEMENT_SET_NO": 999,
    "REV_AT_EPOCH": 3147,
    "BSTAR": 8.5322e-07,
    "MEAN_MOTION_DOT": -4.85e-06,
    "MEAN_MOTION_DDOT": 0
  },
  {
    "OBJECT_NAME": "STARLINK-11336 [DTC]",
    "OBJECT_ID": "2024-195M",
    "EPOCH": "2025-05-10T04:40:04.202976",
    "MEAN_MOTION": 15.69808179,
    "ECCENTRICITY": 0.0003735,
    "INCLINATION": 53.1555,
    "RA_OF_ASC_NODE": 75.2541,
    "ARG_OF_PERICENTER": 154.9597,
    "MEAN_ANOMALY": 205.1603,
    "EPHEMERIS_TYPE": 0,
    "CLASSIFICATION_TYPE": "U",
    "NORAD_CAT_ID": 61698,
    "ELEMENT_SET_NO": 999,
    "REV_AT_EPOCH": 3146,
    "BSTAR": 0.0017206,
    "MEAN_MOTION_DOT": 0.00214237,
    "MEAN_MOTION_DDOT": 0
  },
  {
    "OBJECT_NAME": "STARLINK-11296 [DTC]",
    "OBJECT_ID": "2024-195N",
    "EPOCH": "2025-05-10T06:38:56.706144",
    "MEAN_MOTION": 15.69717203,
    "ECCENTRICITY": 0.0001139,
    "INCLINATION": 53.1582,
    "RA_OF_ASC_NODE": 81.6506,
    "ARG_OF_PERICENTER": 84.6183,
    "MEAN_ANOMALY": 275.4964,
    "EPHEMERIS_TYPE": 0,
    "CLASSIFICATION_TYPE": "U",
    "NORAD_CAT_ID": 61699,
    "ELEMENT_SET_NO": 999,
    "REV_AT_EPOCH": 3138,
    "BSTAR": 1.511e-05,
    "MEAN_MOTION_DOT": 1.243e-05,
    "MEAN_MOTION_DDOT": 0
  },
  {
    "OBJECT_NAME": "STARLINK-32349",
    "OBJECT_ID": "2024-195P",
    "EPOCH": "2025-05-10T06:11:36.909312",
    "MEAN_MOTION": 15.30200102,
    "ECCENTRICITY": 0.0001391,
    "INCLINATION": 53.1599,
    "RA_OF_ASC_NODE": 124.8457,
    "ARG_OF_PERICENTER": 83.6054,
    "MEAN_ANOMALY": 276.5105,
    "EPHEMERIS_TYPE": 0,
    "CLASSIFICATION_TYPE": "U",
    "NORAD_CAT_ID": 61700,
    "ELEMENT_SET_NO": 999,
    "REV_AT_EPOCH": 3072,
    "BSTAR": 5.403e-05,
    "MEAN_MOTION_DOT": 1.241e-05,
    "MEAN_MOTION_DDOT": 0
  }
]