STARLINK-11335 [DTC]    
1 61687U 24195A   25130.59059190  .00000590  00000+0  97264-5 0  9994
2 61687  53.1600  80.7855 0001295  91.7631 268.3535 15.69712514 31425
STARLINK-11344 [DTC]    
1 61688U 24195B   25130.58567949  .00002266  00000+0  23549-4 0  9996
2 61688  53.1609  80.7527 0001428  98.9218 261.1962 15.69725487 31416
STARLINK-11312 [DTC]    
1 61689U 24195C   25130.58079233 -.00000335  00000+0  20990-5 0  9995
2 61689  53.1606  80.7200 0001438  94.6713 265.4469 15.69703709 31418
STARLINK-11340 [DTC]    
1 61690U 24195D   25130.57588215 -.00000689  00000+0 -82125-6 0  9993
2 61690  53.1598  80.6849 0001550 105.1082 255.0108 15.69706964 31422
STARLINK-11339 [DTC]    
1 61691U 24195E   25130.56606048 -.00000542  00000+0  38472-6 0  9991
2 61691  53.1607  80.6218 0001100  94.8756 265.2387 15.69722512 31426
STARLINK-11315 [DTC]    
1 61692U 24195F   25130.57097988 -.00000795  00000+0 -17040-5 0  9998
2 61692  53.1598  80.6535 0001313  85.5211 274.5956 15.69703625 31426
STARLINK-11366 [DTC]    
1 61693U 24195G   25130.56116712 -.00000304  00000+0  23505-5 0  9993
2 61693  53.1598  80.5906 0001317  87.8969 272.2200 15.69705571 31426
STARLINK-11348 [DTC]    
1 61694U 24195H   25130.55625664 -.00001087  00000+0 -41052-5 0  9991
2 61694  53.1604  80.5521 0001515  89.0181 271.1011 15.69712020 31423
STARLINK-11327 [DTC]    
1 61695U 24195J   25130.29667928  .00003422  00000+0  33084-4 0  9990
2 61695  53.1583  81.7829 0001876  62.6161 297.5048 15.69723206 31384
STARLINK-11341 [DTC]    
1 61696U 24195K   25130.86479870 -.00001136  00000+0 -45189-5 0  9993
2 61696  53.1581  78.9215 0001117  78.1509 281.9634 15.69705718 31472
STARLINK-11346 [DTC]    
1 61697U 24195L   25130.85989322 -.00000485  00000+0  85322-6 0  9990
2 61697  53.1586  78.8880 0000776 100.8818 259.2287 15.69696988 31471
STARLINK-11336 [DTC]    
1 61698U 24195M   25130.19449309  .00214237  00000+0  17206-2 0  9997
2 61698  53.1555  75.2541 0003735 154.9597 205.1603 15.69808179 31463
STARLINK-11296 [DTC]    
1 61699U 24195N   25130.27704521  .00001243  00000+0  15110-4 0  9992
2 61699  53.1582  81.6506 0001139  84.6183 275.4964 15.69717203 31380
STARLINK-32349          
1 61700U 24195P   25130.25806608  .00001241  00000+0  54030-4 0  9994
2 61700  53.1599 124.8457 0001391  83.6054 276.5105 15.30200102 30721
